{
  "type": "FeatureCollection",
  "features": [
    {
      "type": "Feature",
      "properties": {
        "norad_id": 34614,
        "name": "COSMOS 2251 DEB",
        "group": "cosmos-2251-debris",
        "lat": -64.84624174751228,
        "lon": -56.294288693818466,
        "alt_km": 739.7352194554232,
        "timestamp": "2025-12-13T22:39:30.106069+00:00",
        "meta_object_name": "COSMOS 2251 DEB",
        "meta_object_id": "1993-036WK",
        "meta_epoch": "2025-12-13T01:13:19.013664",
        "meta_mean_motion": 14.17517102,
        "meta_eccentricity": 0.01975509,
        "meta_inclination": 73.8804,
        "meta_ra_of_asc_node": 343.326,
        "meta_arg_of_pericenter": 337.1792,
        "meta_mean_anomaly": 77.7807,
        "meta_ephemeris_type": 0,
        "meta_classification_type": "U",
        "meta_norad_cat_id": 34614,
        "meta_element_set_no": 999,
        "meta_rev_at_epoch": 84771,
        "meta_bstar": 0.0088054946,
        "meta_mean_motion_dot": 0.0002169,
        "meta_mean_motion_ddot": 0,
        "tle_line1": "1 34614U 93036WK  25347.05091451  .00021690  00000+0  88055-2 0  9990",
        "tle_line2": "2 34614  73.8804 343.3260 0197550 337.1792  77.7807 14.17517102847712"
      },
      "geometry": {
        "type": "Point",
        "coordinates": [
          -56.294288693818466,
          -64.84624174751228
        ]
      }
    },
    {
      "type": "Feature",
      "properties": {
        "norad_id": 34615,
        "name": "COSMOS 2251 DEB",
        "group": "cosmos-2251-debris",
        "lat": -73.43727165734214,
        "lon": -173.11906128650656,
        "alt_km": 941.91091079954,
        "timestamp": "2025-12-13T22:39:30.106080+00:00",
        "meta_object_name": "COSMOS 2251 DEB",
        "meta_object_id": "1993-036WL",
        "meta_epoch": "2025-12-11T15:13:30.717120",
        "meta_mean_motion": 13.52202046,
        "meta_eccentricity": 0.04013404,
        "meta_inclination": 74.005,
        "meta_ra_of_asc_node": 295.914,
        "meta_arg_of_pericenter": 203.3816,
        "meta_mean_anomaly": 338.769,
        "meta_ephemeris_type": 0,
        "meta_classification_type": "U",
        "meta_norad_cat_id": 34615,
        "meta_element_set_no": 999,
        "meta_rev_at_epoch": 82800,
        "meta_bstar": 0.00021166372,
        "meta_mean_motion_dot": 2.1e-06,
        "meta_mean_motion_ddot": 0,
        "tle_line1": "1 34615U 93036WL  25345.63438330  .00000210  00000+0  21166-3 0  9990",
        "tle_line2": "2 34615  74.0050 295.9140 0401340 203.3816 338.7690 13.52202046828001"
      },
      "geometry": {
        "type": "Point",
        "coordinates": [
          -173.11906128650656,
          -73.43727165734214
        ]
      }
    },
    {
      "type": "Feature",
      "properties": {
        "norad_id": 34619,
        "name": "COSMOS 2251 DEB",
        "group": "cosmos-2251-debris",
        "lat": -59.11476416103404,
        "lon": 169.04939071969267,
        "alt_km": 618.3408145173471,
        "timestamp": "2025-12-13T22:39:30.106091+00:00",
        "meta_object_name": "COSMOS 2251 DEB",
        "meta_object_id": "1993-036WQ",
        "meta_epoch": "2025-12-13T06:32:57.785856",
        "meta_mean_motion": 14.64648644,
        "meta_eccentricity": 0.00947184,
        "meta_inclination": 74.0441,
        "meta_ra_of_asc_node": 198.9146,
        "meta_arg_of_pericenter": 293.6523,
        "meta_mean_anomaly": 65.4724,
        "meta_ephemeris_type": 0,
        "meta_classification_type": "U",
        "meta_norad_cat_id": 34619,
        "meta_element_set_no": 999,
        "meta_rev_at_epoch": 89306,
        "meta_bstar": 0.00035297144,
        "meta_mean_motion_dot": 1.97e-05,
        "meta_mean_motion_ddot": 0,
        "tle_line1": "1 34619U 93036WQ  25347.27289104  .00001970  00000+0  35297-3 0  9993",
        "tle_line2": "2 34619  74.0441 198.9146 0094718 293.6523  65.4724 14.64648644893063"
      },
      "geometry": {
        "type": "Point",
        "coordinates": [
          169.04939071969267,
          -59.11476416103404
        ]
      }
    },
    {
      "type": "Feature",
      "properties": {
        "norad_id": 34620,
        "name": "COSMOS 2251 DEB",
        "group": "cosmos-2251-debris",
        "lat": 66.92668503530318,
        "lon": -4.890189278999114,
        "alt_km": 769.2676725043684,
        "timestamp": "2025-12-13T22:39:30.106101+00:00",
        "meta_object_name": "COSMOS 2251 DEB",
        "meta_object_id": "1993-036WR",
        "meta_epoch": "2025-12-13T00:37:17.720256",
        "meta_mean_motion": 14.49111919,
        "meta_eccentricity": 0.00806252,
        "meta_inclination": 74.0516,
        "meta_ra_of_asc_node": 218.9958,
        "meta_arg_of_pericenter": 255.3546,
        "meta_mean_anomaly": 103.8666,
        "meta_ephemeris_type": 0,
        "meta_classification_type": "U",
        "meta_norad_cat_id": 34620,
        "meta_element_set_no": 999,
        "meta_rev_at_epoch": 86831,
        "meta_bstar": 0.0030494488,
        "meta_mean_motion_dot": 0.00012073,
        "meta_mean_motion_ddot": 0,
        "tle_line1": "1 34620U 93036WR  25347.02589954  .00012073  00000+0  30494-2 0  9993",
        "tle_line2": "2 34620  74.0516 218.9958 0080625 255.3546 103.8666 14.49111919868319"
      },
      "geometry": {
        "type": "Point",
        "coordinates": [
          -4.890189278999114,
          66.92668503530318
        ]
      }
    },
    {
      "type": "Feature",
      "properties": {
        "norad_id": 34622,
        "name": "COSMOS 2251 DEB",
        "group": "cosmos-2251-debris",
        "lat": -12.876007495103268,
        "lon": -58.89881112627724,
        "alt_km": 764.8827398189451,
        "timestamp": "2025-12-13T22:39:30.106113+00:00",
        "meta_object_name": "COSMOS 2251 DEB",
        "meta_object_id": "1993-036WT",
        "meta_epoch": "2025-12-13T08:13:58.890144",
        "meta_mean_motion": 14.2205095,
        "meta_eccentricity": 0.01044099,
        "meta_inclination": 74.0424,
        "meta_ra_of_asc_node": 305.9293,
        "meta_arg_of_pericenter": 28.2349,
        "meta_mean_anomaly": 123.4294,
        "meta_ephemeris_type": 0,
        "meta_classification_type": "U",
        "meta_norad_cat_id": 34622,
        "meta_element_set_no": 999,
        "meta_rev_at_epoch": 86468,
        "meta_bstar": 0.0015059909,
        "meta_mean_motion_dot": 3.497e-05,
        "meta_mean_motion_ddot": 0,
        "tle_line1": "1 34622U 93036WT  25347.34304271  .00003497  00000+0  15060-2 0  9999",
        "tle_line2": "2 34622  74.0424 305.9293 0104409  28.2349 123.4294 14.22050950864682"
      },
      "geometry": {
        "type": "Point",
        "coordinates": [
          -58.89881112627724,
          -12.876007495103268
        ]
      }
    },
    {
      "type": "Feature",
      "properties": {
        "norad_id": 34626,
        "name": "COSMOS 2251 DEB",
        "group": "cosmos-2251-debris",
        "lat": 27.990262598543307,
        "lon": -29.703092373108788,
        "alt_km": 634.9287652719986,
        "timestamp": "2025-12-13T22:39:30.106124+00:00",
        "meta_object_name": "COSMOS 2251 DEB",
        "meta_object_id": "1993-036WX",
        "meta_epoch": "2025-12-13T04:39:13.264992",
        "meta_mean_motion": 14.72206447,
        "meta_eccentricity": 0.00265203,
        "meta_inclination": 74.0485,
        "meta_ra_of_asc_node": 323.0109,
        "meta_arg_of_pericenter": 51.1131,
        "meta_mean_anomaly": 323.9522,
        "meta_ephemeris_type": 0,
        "meta_classification_type": "U",
        "meta_norad_cat_id": 34626,
        "meta_element_set_no": 999,
        "meta_rev_at_epoch": 89151,
        "meta_bstar": 0.001479941,
        "meta_mean_motion_dot": 9.367e-05,
        "meta_mean_motion_ddot": 0,
        "tle_line1": "1 34626U 93036WX  25347.19390353  .00009367  00000+0  14799-2 0  9992",
        "tle_line2": "2 34626  74.0485 323.0109 0026520  51.1131 323.9522 14.72206447891513"
      },
      "geometry": {
        "type": "Point",
        "coordinates": [
          -29.703092373108788,
          27.990262598543307
        ]
      }
    },
    {
      "type": "Feature",
      "properties": {
        "norad_id": 34634,
        "name": "COSMOS 2251 DEB",
        "group": "cosmos-2251-debris",
        "lat": 52.862611348094504,
        "lon": -169.48909362681354,
        "alt_km": 671.8046801808432,
        "timestamp": "2025-12-13T22:39:30.106134+00:00",
        "meta_object_name": "COSMOS 2251 DEB",
        "meta_object_id": "1993-036XF",
        "meta_epoch": "2025-12-13T04:14:38.740992",
        "meta_mean_motion": 14.55661347,
        "meta_eccentricity": 0.00441414,
        "meta_inclination": 74.053,
        "meta_ra_of_asc_node": 34.1453,
        "meta_arg_of_pericenter": 141.4164,
        "meta_mean_anomaly": 283.5544,
        "meta_ephemeris_type": 0,
        "meta_classification_type": "U",
        "meta_norad_cat_id": 34634,
        "meta_element_set_no": 999,
        "meta_rev_at_epoch": 88788,
        "meta_bstar": 0.00050718164,
        "meta_mean_motion_dot": 2.216e-05,
        "meta_mean_motion_ddot": 0,
        "tle_line1": "1 34634U 93036XF  25347.17683728  .00002216  00000+0  50718-3 0  9998",
        "tle_line2": "2 34634  74.0530  34.1453 0044141 141.4164 283.5544 14.55661347887888"
      },
      "geometry": {
        "type": "Point",
        "coordinates": [
          -169.48909362681354,
          52.862611348094504
        ]
      }
    }
  ]
}